{
  "type": "FeatureCollection",
  "features": [
    {
      "type": "Feature",
      "properties": {
        "norad_id": 30629,
        "name": "FENGYUN 1C DEB",
        "group": "fengyun-1c-debris",
        "lat": 39.729536752269,
        "lon": -95.99750062459721,
        "alt_km": 690.5464960681866,
        "timestamp": "2025-12-06T22:38:43.005894+00:00",
        "meta_object_name": "FENGYUN 1C DEB",
        "meta_object_id": "1999-025ANL",
        "meta_epoch": "2025-12-06T12:43:28.699392",
        "meta_mean_motion": 14.59306421,
        "meta_eccentricity": 0.00077316,
        "meta_inclination": 99.2519,
        "meta_ra_of_asc_node": 75.7565,
        "meta_arg_of_pericenter": 212.7151,
        "meta_mean_anomaly": 276.5679,
        "meta_ephemeris_type": 0,
        "meta_classification_type": "U",
        "meta_norad_cat_id": 30629,
        "meta_element_set_no": 999,
        "meta_rev_at_epoch": 97799,
        "meta_bstar": 0.0052253957,
        "meta_mean_motion_dot": 0.00024742,
        "meta_mean_motion_ddot": 0,
        "tle_line1": "1 30629U 99025ANL 25340.53019328  .00024742  00000+0  52254-2 0  9998",
        "tle_line2": "2 30629  99.2519  75.7565 0007731 212.7151 276.5679 14.59306421977997"
      },
      "geometry": {
        "type": "Point",
        "coordinates": [
          -95.99750062459721,
          39.729536752269
        ]
      }
    },
    {
      "type": "Feature",
      "properties": {
        "norad_id": 30630,
        "name": "FENGYUN 1C DEB",
        "group": "fengyun-1c-debris",
        "lat": 28.086848254824687,
        "lon": -21.30704161936823,
        "alt_km": 806.9073367669807,
        "timestamp": "2025-12-06T22:38:43.005904+00:00",
        "meta_object_name": "FENGYUN 1C DEB",
        "meta_object_id": "1999-025ANM",
        "meta_epoch": "2025-12-06T10:15:39.659040",
        "meta_mean_motion": 14.22340888,
        "meta_eccentricity": 0.00259805,
        "meta_inclination": 99.1726,
        "meta_ra_of_asc_node": 153.2098,
        "meta_arg_of_pericenter": 92.34,
        "meta_mean_anomaly": 298.0896,
        "meta_ephemeris_type": 0,
        "meta_classification_type": "U",
        "meta_norad_cat_id": 30630,
        "meta_element_set_no": 999,
        "meta_rev_at_epoch": 97123,
        "meta_bstar": 0.001655757,
        "meta_mean_motion_dot": 3.649e-05,
        "meta_mean_motion_ddot": 0,
        "tle_line1": "1 30630U 99025ANM 25340.42754235  .00003649  00000+0  16558-2 0  9991",
        "tle_line2": "2 30630  99.1726 153.2098 0025980  92.3400 298.0896 14.22340888971232"
      },
      "geometry": {
        "type": "Point",
        "coordinates": [
          -21.30704161936823,
          28.086848254824687
        ]
      }
    },
    {
      "type": "Feature",
      "properties": {
        "norad_id": 30632,
        "name": "FENGYUN 1C DEB",
        "group": "fengyun-1c-debris",
        "lat": -43.518386344714045,
        "lon": -76.58479689113213,
        "alt_km": 683.3142328438034,
        "timestamp": "2025-12-06T22:38:43.005937+00:00",
        "meta_object_name": "FENGYUN 1C DEB",
        "meta_object_id": "1999-025ANP",
        "meta_epoch": "2025-12-06T15:08:05.927424",
        "meta_mean_motion": 14.62404071,
        "meta_eccentricity": 0.00155256,
        "meta_inclination": 98.8236,
        "meta_ra_of_asc_node": 111.5632,
        "meta_arg_of_pericenter": 187.3756,
        "meta_mean_anomaly": 190.085,
        "meta_ephemeris_type": 0,
        "meta_classification_type": "U",
        "meta_norad_cat_id": 30632,
        "meta_element_set_no": 999,
        "meta_rev_at_epoch": 97602,
        "meta_bstar": 0.0062997755,
        "meta_mean_motion_dot": 0.00032017,
        "meta_mean_motion_ddot": 0,
        "tle_line1": "1 30632U 99025ANP 25340.63062416  .00032017  00000+0  62998-2 0  9999",
        "tle_line2": "2 30632  98.8236 111.5632 0015525 187.3756 190.0850 14.62404071976022"
      },
      "geometry": {
        "type": "Point",
        "coordinates": [
          -76.58479689113213,
          -43.518386344714045
        ]
      }
    },
    {
      "type": "Feature",
      "properties": {
        "norad_id": 30633,
        "name": "FENGYUN 1C DEB",
        "group": "fengyun-1c-debris",
        "lat": -63.61357506405093,
        "lon": 8.991056658988205,
        "alt_km": 804.9497653039552,
        "timestamp": "2025-12-06T22:38:43.005959+00:00",
        "meta_object_name": "FENGYUN 1C DEB",
        "meta_object_id": "1999-025ANQ",
        "meta_epoch": "2025-12-06T14:55:40.158048",
        "meta_mean_motion": 14.04362284,
        "meta_eccentricity": 0.0130757,
        "meta_inclination": 98.4206,
        "meta_ra_of_asc_node": 206.065,
        "meta_arg_of_pericenter": 277.6189,
        "meta_mean_anomaly": 143.2076,
        "meta_ephemeris_type": 0,
        "meta_classification_type": "U",
        "meta_norad_cat_id": 30633,
        "meta_element_set_no": 999,
        "meta_rev_at_epoch": 95806,
        "meta_bstar": 0.0016244115,
        "meta_mean_motion_dot": 2.749e-05,
        "meta_mean_motion_ddot": 0,
        "tle_line1": "1 30633U 99025ANQ 25340.62199257  .00002749  00000+0  16244-2 0  9995",
        "tle_line2": "2 30633  98.4206 206.0650 0130757 277.6189 143.2076 14.04362284958063"
      },
      "geometry": {
        "type": "Point",
        "coordinates": [
          8.991056658988205,
          -63.61357506405093
        ]
      }
    },
    {
      "type": "Feature",
      "properties": {
        "norad_id": 30634,
        "name": "FENGYUN 1C DEB",
        "group": "fengyun-1c-debris",
        "lat": 38.313451689962214,
        "lon": 151.00849394344846,
        "alt_km": 780.6037919486862,
        "timestamp": "2025-12-06T22:38:43.005971+00:00",
        "meta_object_name": "FENGYUN 1C DEB",
        "meta_object_id": "1999-025ANR",
        "meta_epoch": "2025-12-05T22:17:00.676320",
        "meta_mean_motion": 14.09635104,
        "meta_eccentricity": 0.01205388,
        "meta_inclination": 99.2913,
        "meta_ra_of_asc_node": 322.5293,
        "meta_arg_of_pericenter": 115.5024,
        "meta_mean_anomaly": 276.4696,
        "meta_ephemeris_type": 0,
        "meta_classification_type": "U",
        "meta_norad_cat_id": 30634,
        "meta_element_set_no": 999,
        "meta_rev_at_epoch": 95521,
        "meta_bstar": 0.0028327612,
        "meta_mean_motion_dot": 5.267e-05,
        "meta_mean_motion_ddot": 0,
        "tle_line1": "1 30634U 99025ANR 25339.92848005  .00005267  00000+0  28328-2 0  9993",
        "tle_line2": "2 30634  99.2913 322.5293 0120538 115.5024 276.4696 14.09635104955219"
      },
      "geometry": {
        "type": "Point",
        "coordinates": [
          151.00849394344846,
          38.313451689962214
        ]
      }
    },
    {
      "type": "Feature",
      "properties": {
        "norad_id": 30639,
        "name": "FENGYUN 1C DEB",
        "group": "fengyun-1c-debris",
        "lat": 56.13475822161436,
        "lon": 79.00902034527635,
        "alt_km": 802.0071582376086,
        "timestamp": "2025-12-06T22:38:43.005982+00:00",
        "meta_object_name": "FENGYUN 1C DEB",
        "meta_object_id": "1999-025ANW",
        "meta_epoch": "2025-12-05T12:50:41.481312",
        "meta_mean_motion": 14.32158076,
        "meta_eccentricity": 0.00668358,
        "meta_inclination": 99.0193,
        "meta_ra_of_asc_node": 91.2358,
        "meta_arg_of_pericenter": 302.2906,
        "meta_mean_anomaly": 57.1813,
        "meta_ephemeris_type": 0,
        "meta_classification_type": "U",
        "meta_norad_cat_id": 30639,
        "meta_element_set_no": 999,
        "meta_rev_at_epoch": 96616,
        "meta_bstar": 0.0052811575,
        "meta_mean_motion_dot": 0.00014553,
        "meta_mean_motion_ddot": 0,
        "tle_line1": "1 30639U 99025ANW 25339.53520233  .00014553  00000+0  52812-2 0  9998",
        "tle_line2": "2 30639  99.0193  91.2358 0066835 302.2906  57.1813 14.32158076966162"
      },
      "geometry": {
        "type": "Point",
        "coordinates": [
          79.00902034527635,
          56.13475822161436
        ]
      }
    },
    {
      "type": "Feature",
      "properties": {
        "norad_id": 30640,
        "name": "FENGYUN 1C DEB",
        "group": "fengyun-1c-debris",
        "lat": -20.91763051862331,
        "lon": -131.42744221023932,
        "alt_km": 842.571990205257,
        "timestamp": "2025-12-06T22:38:43.005992+00:00",
        "meta_object_name": "FENGYUN 1C DEB",
        "meta_object_id": "1999-025ANX",
        "meta_epoch": "2025-12-05T22:12:22.076928",
        "meta_mean_motion": 14.145743,
        "meta_eccentricity": 0.00813405,
        "meta_inclination": 99.058,
        "meta_ra_of_asc_node": 51.0355,
        "meta_arg_of_pericenter": 119.6801,
        "meta_mean_anomaly": 297.6834,
        "meta_ephemeris_type": 0,
        "meta_classification_type": "U",
        "meta_norad_cat_id": 30640,
        "meta_element_set_no": 999,
        "meta_rev_at_epoch": 96349,
        "meta_bstar": 0.0026768953,
        "meta_mean_motion_dot": 5.265e-05,
        "meta_mean_motion_ddot": 0,
        "tle_line1": "1 30640U 99025ANX 25339.92525552  .00005265  00000+0  26769-2 0  9994",
        "tle_line2": "2 30640  99.0580  51.0355 0081340 119.6801 297.6834 14.14574300963496"
      },
      "geometry": {
        "type": "Point",
        "coordinates": [
          -131.42744221023932,
          -20.91763051862331
        ]
      }
    }
  ]
}